{"type": "FeatureCollection", "features": [ {"type": "Feature", "properties": {"norad_id": 33799, "name": "COSMOS 2251 DEB", "group": "cosmos-2251-debris", "lat": 48.063430442507915, "lon": -134.76140276595413, "alt_km": 609.7281947587408, "timestamp": "2025-12-21T20:41:08.348575+00:00", "meta": {"OBJECT_NAME": "COSMOS 2251 DEB", "OBJECT_ID": "1993-036AQ", "EPOCH": "2025-12-21T14:10:18.315264", "MEAN_MOTION": 14.79724933, "ECCENTRICITY": 0.00225795, "INCLINATION": 74.0319, "RA_OF_ASC_NODE": 64.3582, "ARG_OF_PERICENTER": 131.9421, "MEAN_ANOMALY": 352.0908, "EPHEMERIS_TYPE": 0, "CLASSIFICATION_TYPE": "U", "NORAD_CAT_ID": 33799, "ELEMENT_SET_NO": 999, "REV_AT_EPOCH": 88942, "BSTAR": 0.00088132457, "MEAN_MOTION_DOT": 6.625e-05, "MEAN_MOTION_DDOT": 0}, "tle": {"line1": "1 33799U 93036AQ  25355.59048976  .00006625  00000+0  88132-3 0  9993", "line2": "2 33799  74.0319  64.3582 0022579 131.9421 352.0908 14.79724933889428"}}, "geometry": {"type": "Point", "coordinates": [-134.76140276595413, 48.063430442507915]}}, {"type": "Feature", "properties": {"norad_id": 33805, "name": "COSMOS 2251 DEB", "group": "cosmos-2251-debris", "lat": -73.98591948156391, "lon": -159.92751525146062, "alt_km": 743.1702141977867, "timestamp": "2025-12-21T20:41:08.348584+00:00", "meta": {"OBJECT_NAME": "COSMOS 2251 DEB", "OBJECT_ID": "1993-036AW", "EPOCH": "2025-12-21T06:17:05.995680", "MEAN_MOTION": 14.57873133, "ECCENTRICITY": 0.00599616, "INCLINATION": 74.0312, "RA_OF_ASC_NODE": 295.1186, "ARG_OF_PERICENTER": 121.6127, "MEAN_ANOMALY": 239.0909, "EPHEMERIS_TYPE": 0, "CLASSIFICATION_TYPE": "U", "NORAD_CAT_ID": 33805, "ELEMENT_SET_NO": 999, "REV_AT_EPOCH": 89351, "BSTAR": 0.000182332, "MEAN_MOTION_DOT": 8.26e-06, "MEAN_MOTION_DDOT": 0}, "tle": {"line1": "1 33805U 93036AW  25355.26187495  .00000826  00000+0  18233-3 0  9997", "line2": "2 33805  74.0312 295.1186 0059961 121.6127 239.0909 14.57873133893510"}}, "geometry": {"type": "Point", "coordinates": [-159.92751525146062, -73.98591948156391]}}, {"type": "Feature", "properties": {"norad_id": 33811, "name": "COSMOS 2251 DEB", "group": "cosmos-2251-debris", "lat": -68.88482129780944, "lon": 152.40802606012969, "alt_km": 562.8878547743443, "timestamp": "2025-12-21T20:41:08.348594+00:00", "meta": {"OBJECT_NAME": "COSMOS 2251 DEB", "OBJECT_ID": "1993-036BC", "EPOCH": "2025-12-21T13:56:08.586816", "MEAN_MOTION": 15.05504555, "ECCENTRICITY": 0.00309563, "INCLINATION": 73.8382, "RA_OF_ASC_NODE": 284.3168, "ARG_OF_PERICENTER": 3.4014, "MEAN_ANOMALY": 169.4774, "EPHEMERIS_TYPE": 0, "CLASSIFICATION_TYPE": "U", "NORAD_CAT_ID": 33811, "ELEMENT_SET_NO": 999, "REV_AT_EPOCH": 90151, "BSTAR": 0.00087887205, "MEAN_MOTION_DOT": 0.00012758, "MEAN_MOTION_DDOT": 0}, "tle": {"line1": "1 33811U 93036BC  25355.58065494  .00012758  00000+0  87887-3 0  9991", "line2": "2 33811  73.8382 284.3168 0030956   3.4014 169.4774 15.05504555901515"}}, "geometry": {"type": "Point", "coordinates": [152.40802606012969, -68.88482129780944]}}, {"type": "Feature", "properties": {"norad_id": 33815, "name": "COSMOS 2251 DEB", "group": "cosmos-2251-debris", "lat": 54.67004093763243, "lon": -178.65173087728024, "alt_km": 499.91541515107383, "timestamp": "2025-12-21T20:41:08.348604+00:00", "meta": {"OBJECT_NAME": "COSMOS 2251 DEB", "OBJECT_ID": "1993-036BG", "EPOCH": "2025-12-21T05:24:27.043200", "MEAN_MOTION": 15.20114947, "ECCENTRICITY": 0.0002165, "INCLINATION": 73.9521, "RA_OF_ASC_NODE": 158.7294, "ARG_OF_PERICENTER": 313.0523, "MEAN_ANOMALY": 222.7176, "EPHEMERIS_TYPE": 0, "CLASSIFICATION_TYPE": "U", "NORAD_CAT_ID": 33815, "ELEMENT_SET_NO": 999, "REV_AT_EPOCH": 88499, "BSTAR": 0.0058721, "MEAN_MOTION_DOT": 0.00129213, "MEAN_MOTION_DDOT": 0}, "tle": {"line1": "1 33815U 93036BG  25355.22531300  .00129213  00000+0  58721-2 0  9999", "line2": "2 33815  73.9521 158.7294 0002165 313.0523 222.7176 15.20114947884995"}}, "geometry": {"type": "Point", "coordinates": [-178.65173087728024, 54.67004093763243]}}, {"type": "Feature", "properties": {"norad_id": 33816, "name": "COSMOS 2251 DEB", "group": "cosmos-2251-debris", "lat": 73.88547411688867, "lon": 179.55702474304655, "alt_km": 759.7121173096257, "timestamp": "2025-12-21T20:41:08.348614+00:00", "meta": {"OBJECT_NAME": "COSMOS 2251 DEB", "OBJECT_ID": "1993-036BH", "EPOCH": "2025-12-21T13:18:49.635360", "MEAN_MOTION": 13.81792655, "ECCENTRICITY": 0.0264268, "INCLINATION": 73.8952, "RA_OF_ASC_NODE": 90.4557, "ARG_OF_PERICENTER": 101.6454, "MEAN_ANOMALY": 261.4454, "EPHEMERIS_TYPE": 0, "CLASSIFICATION_TYPE": "U", "NORAD_CAT_ID": 33816, "ELEMENT_SET_NO": 999, "REV_AT_EPOCH": 84795, "BSTAR": 0.0002916108, "MEAN_MOTION_DOT": 3.86e-06, "MEAN_MOTION_DDOT": 0}, "tle": {"line1": "1 33816U 93036BH  25355.55474115  .00000386  00000+0  29161-3 0  9992", "line2": "2 33816  73.8952  90.4557 0264268 101.6454 261.4454 13.81792655847952"}}, "geometry": {"type": "Point", "coordinates": [179.55702474304655, 73.88547411688867]}}, {"type": "Feature", "properties": {"norad_id": 33818, "name": "COSMOS 2251 DEB", "group": "cosmos-2251-debris", "lat": 72.75835797393924, "lon": -99.52506503265596, "alt_km": 505.09758652407345, "timestamp": "2025-12-21T20:41:08.348623+00:00", "meta": {"OBJECT_NAME": "COSMOS 2251 DEB", "OBJECT_ID": "1993-036BK", "EPOCH": "2025-12-21T12:36:07.056288", "MEAN_MOTION": 15.13147314, "ECCENTRICITY": 0.00250586, "INCLINATION": 74.078, "RA_OF_ASC_NODE": 148.074, "ARG_OF_PERICENTER": 132.9847, "MEAN_ANOMALY": 289.8529, "EPHEMERIS_TYPE": 0, "CLASSIFICATION_TYPE": "U", "NORAD_CAT_ID": 33818, "ELEMENT_SET_NO": 999, "REV_AT_EPOCH": 89995, "BSTAR": 0.0020470261, "MEAN_MOTION_DOT": 0.00036719, "MEAN_MOTION_DDOT": 0}, "tle": {"line1": "1 33818U 93036BK  25355.52508167  .00036719  00000+0  20470-2 0  9998", "line2": "2 33818  74.0780 148.0740 0025058 132.9847 289.8529 15.13147314899952"}}, "geometry": {"type": "Point", "coordinates": [-99.52506503265596, 72.75835797393924]}}, {"type": "Feature", "properties": {"norad_id": 33819, "name": "COSMOS 2251 DEB", "group": "cosmos-2251-debris", "lat": 72.82848184890176, "lon": -53.249022053081795, "alt_km": 731.1519188335751, "timestamp": "2025-12-21T20:41:08.348633+00:00", "meta": {"OBJECT_NAME": "COSMOS 2251 DEB", "OBJECT_ID": "1993-036BL", "EPOCH": "2025-12-21T07:23:43.181088", "MEAN_MOTION": 14.32249896, "ECCENTRICITY": 0.0089407, "INCLINATION": 74.1774, "RA_OF_ASC_NODE": 194.3466, "ARG_OF_PERICENTER": 53.0788, "MEAN_ANOMALY": 68.8206, "EPHEMERIS_TYPE": 0, "CLASSIFICATION_TYPE": "U", "NORAD_CAT_ID": 33819, "ELEMENT_SET_NO": 999, "REV_AT_EPOCH": 87618, "BSTAR": 0.00045613, "MEAN_MOTION_DOT": 1.261e-05, "MEAN_MOTION_DDOT": 0}, "tle": {"line1": "1 33819U 93036BL  25355.30813867  .00001261  00000+0  45613-3 0  9992", "line2": "2 33819  74.1774 194.3466 0089407  53.0788  68.8206 14.32249896876186"}}, "geometry": {"type": "Point", "coordinates": [-53.249022053081795, 72.82848184890176]}}, {"type": "Feature", "properties": {"norad_id": 33821, "name": "COSMOS 2251 DEB", "group": "cosmos-2251-debris", "lat": -41.418209945565735, "lon": 108.91076888912953, "alt_km": 527.3050505875044, "timestamp": "2025-12-21T20:41:08.348643+00:00", "meta": {"OBJECT_NAME": "COSMOS 2251 DEB", "OBJECT_ID": "1993-036BN", "EPOCH": "2025-12-20T19:41:58.311456", "MEAN_MOTION": 15.25778594, "ECCENTRICITY": 0.00500701, "INCLINATION": 74.03, "RA_OF_ASC_NODE": 125.7461, "ARG_OF_PERICENTER": 156.7789, "MEAN_ANOMALY": 203.569, "EPHEMERIS_TYPE": 0, "CLASSIFICATION_TYPE": "U", "NORAD_CAT_ID": 33821, "ELEMENT_SET_NO": 999, "REV_AT_EPOCH": 75124, "BSTAR": 0.00083355537, "MEAN_MOTION_DOT": 0.000221, "MEAN_MOTION_DDOT": 0}, "tle": {"line1": "1 33821U 93036BN  25354.82081379  .00022100  00000+0  83356-3 0  9997", "line2": "2 33821  74.0300 125.7461 0050070 156.7789 203.5690 15.25778594751241"}}, "geometry": {"type": "Point", "coordinates": [108.91076888912953, -41.418209945565735]}}, {"type": "Feature", "properties": {"norad_id": 33822, "name": "COSMOS 2251 DEB", "group": "cosmos-2251-debris", "lat": 14.703292572692728, "lon": -178.1236717825602, "alt_km": 947.9758103737904, "timestamp": "2025-12-21T20:41:08.348652+00:00", "meta": {"OBJECT_NAME": "COSMOS 2251 DEB", "OBJECT_ID": "1993-036BP", "EPOCH": "2025-12-21T14:08:53.962944", "MEAN_MOTION": 14.13110302, "ECCENTRICITY": 0.0152851, "INCLINATION": 74.0677, "RA_OF_ASC_NODE": 178.0584, "ARG_OF_PERICENTER": 222.2199, "MEAN_ANOMALY": 207.2604, "EPHEMERIS_TYPE": 0, "CLASSIFICATION_TYPE": "U", "NORAD_CAT_ID": 33822, "ELEMENT_SET_NO": 999, "REV_AT_EPOCH": 86179, "BSTAR": 0.0010503432, "MEAN_MOTION_DOT": 2.169e-05, "MEAN_MOTION_DDOT": 0}, "tle": {"line1": "1 33822U 93036BP  25355.58951346  .00002169  00000+0  10503-2 0  9998", "line2": "2 33822  74.0677 178.0584 0152851 222.2199 207.2604 14.13110302861791"}}, "geometry": {"type": "Point", "coordinates": [-178.1236717825602, 14.703292572692728]}}, {"type": "Feature", "properties": {"norad_id": 33823, "name": "COSMOS 2251 DEB", "group": "cosmos-2251-debris", "lat": 73.56800399320261, "lon": -126.74933025724009, "alt_km": 1036.377751138013, "timestamp": "2025-12-21T20:41:08.348662+00:00", "meta": {"OBJECT_NAME": "COSMOS 2251 DEB", "OBJECT_ID": "1993-036BQ", "EPOCH": "2025-12-21T03:58:04.827360", "MEAN_MOTION": 13.98969204, "ECCENTRICITY": 0.02094175, "INCLINATION": 73.8097, "RA_OF_ASC_NODE": 134.5636, "ARG_OF_PERICENTER": 258.3721, "MEAN_ANOMALY": 288.2927, "EPHEMERIS_TYPE": 0, "CLASSIFICATION_TYPE": "U", "NORAD_CAT_ID": 33823, "ELEMENT_SET_NO": 999, "REV_AT_EPOCH": 85727, "BSTAR": 0.0005548311, "MEAN_MOTION_DOT": 9.4e-06, "MEAN_MOTION_DDOT": 0}, "tle": {"line1": "1 33823U 93036BQ  25355.16533365  .00000940  00000+0  55483-3 0  9992", "line2": "2 33823  73.8097 134.5636 0209417 258.3721 288.2927 13.98969204857272"}}, "geometry": {"type": "Point", "coordinates": [-126.74933025724009, 73.56800399320261]}}]}